FENGYUN 1C DEB          
1 31333U 99025BQM 17343.35705631  .00000310  00000-0  15913-3 0  9992
2 31333  98.7350  40.9299 0108426 226.6496 132.5607 14.19332186551481
